*******************************************************************************
Ephemeris / WWW_USER Mon Jul 15 19:05:49 2024 Pasadena, USA      / Horizons    
*******************************************************************************
Target body name: (2018 RD5)                      {source: JPL#11}
Center body name: Earth (399)                     {source: DE441}
Center-site name: Gemini South Obs., Cerro Pachon
*******************************************************************************
Start time      : A.D. 2018-Nov-06 23:18:00.0000 UT      
Stop  time      : A.D. 2018-Nov-07 09:34:00.0000 UT      
Step-size       : 1 minutes
*******************************************************************************
Target pole/equ : undefined
Target radii    : undefined                                                    
Center geodetic : 289.2634, -30.2406227, 2.71233  {E-lon(deg),Lat(deg),Alt(km)}
Center cylindric: 289.2634,5517.21435,-3194.81213 {E-lon(deg),Dxy(km),Dz(km)}
Center pole/equ : ITRF93                          {East-longitude positive}
Center radii    : 6378.137, 6378.137, 6356.752 km {Equator_a, b, pole_c}       
Target primary  : Sun
Vis. interferer : MOON (R_eq= 1737.400) km        {source: DE441}
Rel. light bend : Sun                             {source: DE441}
Rel. lght bnd GM: 1.3271E+11 km^3/s^2                                          
Small-body perts: Yes                             {source: SB441-N16}
Atmos refraction: NO (AIRLESS)
RA format       : HMS
Time format     : CAL 
Calendar mode   : Mixed Julian/Gregorian
RTS-only print  : NO       
EOP file        : eop.240715.p241008                                           
EOP coverage    : DATA-BASED 1962-JAN-20 TO 2024-JUL-15. PREDICTS-> 2024-OCT-07
Units conversion: 1 au= 149597870.700 km, c= 299792.458 km/s, 1 day= 86400.0 s 
Table cut-offs 1: Elevation (-90.0deg=NO ),Airmass (>38.000=NO), Daylight (YES)
Table cut-offs 2: Solar elongation (  0.0,180.0=NO ),Local Hour Angle( 0.0=NO )
Table cut-offs 3: RA/DEC angular rate (     0.0=NO )                           
*******************************************************************************
Initial IAU76/J2000 heliocentric ecliptic osculating elements (au, days, deg.):
  EPOCH=  2458378.5 ! 2018-Sep-17.00 (TDB)         Residual RMS= .55339        
   EC= .2891632988519429   QR= 1.009650912138325   TP= 2458360.6433297051      
   OM= 171.0145363394364   W=  163.7983400129293   IN= 8.474307805886117       
  Equivalent ICRF heliocentric cartesian coordinates (au, au/d):
   X= 1.017757009008053E+00  Y=-8.967367621791844E-02  Z=-4.840656937149759E-02
  VX= 3.309922676318766E-03 VY= 1.832358809606965E-02 VZ= 4.854018792897502E-03
Asteroid physical parameters (km, seconds, rotational period in hours):        
   GM= n.a.                RAD= n.a.               ROTPER= n.a.                
   H= 25.9                 G= .150                 B-V= n.a.                   
                           ALBEDO= n.a.            STYP= n.a.                  
*******************************************************************************
 Date__(UT)__HR:MN     R.A._________(ICRF)_________DEC
******************************************************
$$SOE
 2018-Nov-06 23:18 C   02 58 45.742446 -22 19 33.05192
 2018-Nov-06 23:19 C   02 58 45.719161 -22 19 32.38620
 2018-Nov-06 23:20 C   02 58 45.695831 -22 19 31.72042
 2018-Nov-06 23:21 C   02 58 45.672455 -22 19 31.05458
 2018-Nov-06 23:22 C   02 58 45.649034 -22 19 30.38869
 2018-Nov-06 23:23 C   02 58 45.625567 -22 19 29.72273
 2018-Nov-06 23:24 C   02 58 45.602055 -22 19 29.05671
 2018-Nov-06 23:25 C   02 58 45.578498 -22 19 28.39063
 2018-Nov-06 23:26 C   02 58 45.554895 -22 19 27.72448
 2018-Nov-06 23:27 C   02 58 45.531247 -22 19 27.05827
 2018-Nov-06 23:28 C   02 58 45.507554 -22 19 26.39200
 2018-Nov-06 23:29 C   02 58 45.483816 -22 19 25.72566
 2018-Nov-06 23:30 C   02 58 45.460033 -22 19 25.05924
 2018-Nov-06 23:31 C   02 58 45.436205 -22 19 24.39277
 2018-Nov-06 23:32 C   02 58 45.412331 -22 19 23.72622
 2018-Nov-06 23:33 C   02 58 45.388413 -22 19 23.05959
 2018-Nov-06 23:34 C   02 58 45.364450 -22 19 22.39290
 2018-Nov-06 23:35 C   02 58 45.340442 -22 19 21.72614
 2018-Nov-06 23:36 N   02 58 45.316389 -22 19 21.05930
 2018-Nov-06 23:37 N   02 58 45.292291 -22 19 20.39238
 2018-Nov-06 23:38 N   02 58 45.268149 -22 19 19.72539
 2018-Nov-06 23:39 N   02 58 45.243962 -22 19 19.05832
 2018-Nov-06 23:40 N   02 58 45.219730 -22 19 18.39117
 2018-Nov-06 23:41 N   02 58 45.195454 -22 19 17.72395
 2018-Nov-06 23:42 N   02 58 45.171134 -22 19 17.05664
 2018-Nov-06 23:43 N   02 58 45.146769 -22 19 16.38925
 2018-Nov-06 23:44 N   02 58 45.122360 -22 19 15.72178
 2018-Nov-06 23:45 N   02 58 45.097906 -22 19 15.05422
 2018-Nov-06 23:46 N   02 58 45.073408 -22 19 14.38658
 2018-Nov-06 23:47 N   02 58 45.048866 -22 19 13.71886
 2018-Nov-06 23:48 N   02 58 45.024280 -22 19 13.05105
 2018-Nov-06 23:49 N   02 58 44.999650 -22 19 12.38315
 2018-Nov-06 23:50 N   02 58 44.974976 -22 19 11.71516
 2018-Nov-06 23:51 N   02 58 44.950258 -22 19 11.04708
 2018-Nov-06 23:52 N   02 58 44.925496 -22 19 10.37892
 2018-Nov-06 23:53 N   02 58 44.900690 -22 19 09.71066
 2018-Nov-06 23:54 N   02 58 44.875841 -22 19 09.04230
 2018-Nov-06 23:55 N   02 58 44.850948 -22 19 08.37386
 2018-Nov-06 23:56 N   02 58 44.826011 -22 19 07.70532
 2018-Nov-06 23:57 N   02 58 44.801031 -22 19 07.03668
 2018-Nov-06 23:58 N   02 58 44.776007 -22 19 06.36795
 2018-Nov-06 23:59 N   02 58 44.750940 -22 19 05.69912
 2018-Nov-07 00:00 N   02 58 44.725830 -22 19 05.03019
 2018-Nov-07 00:01 N   02 58 44.700677 -22 19 04.36116
 2018-Nov-07 00:02 N   02 58 44.675480 -22 19 03.69203
 2018-Nov-07 00:03 N   02 58 44.650240 -22 19 03.02279
 2018-Nov-07 00:04 N   02 58 44.624958 -22 19 02.35346
 2018-Nov-07 00:05 N   02 58 44.599632 -22 19 01.68402
 2018-Nov-07 00:06 A   02 58 44.574263 -22 19 01.01448
 2018-Nov-07 00:07 A   02 58 44.548852 -22 19 00.34483
 2018-Nov-07 00:08 A   02 58 44.523398 -22 18 59.67507
 2018-Nov-07 00:09 A   02 58 44.497902 -22 18 59.00521
 2018-Nov-07 00:10 A   02 58 44.472363 -22 18 58.33523
 2018-Nov-07 00:11 A   02 58 44.446781 -22 18 57.66515
 2018-Nov-07 00:12 A   02 58 44.421157 -22 18 56.99496
 2018-Nov-07 00:13 A   02 58 44.395491 -22 18 56.32465
 2018-Nov-07 00:14 A   02 58 44.369783 -22 18 55.65424
 2018-Nov-07 00:15 A   02 58 44.344033 -22 18 54.98370
 2018-Nov-07 00:16 A   02 58 44.318240 -22 18 54.31306
 2018-Nov-07 00:17 A   02 58 44.292406 -22 18 53.64230
 2018-Nov-07 00:18 A   02 58 44.266530 -22 18 52.97142
 2018-Nov-07 00:19 A   02 58 44.240612 -22 18 52.30042
 2018-Nov-07 00:20 A   02 58 44.214652 -22 18 51.62931
 2018-Nov-07 00:21 A   02 58 44.188651 -22 18 50.95808
 2018-Nov-07 00:22 A   02 58 44.162608 -22 18 50.28672
 2018-Nov-07 00:23 A   02 58 44.136524 -22 18 49.61525
 2018-Nov-07 00:24 A   02 58 44.110398 -22 18 48.94365
 2018-Nov-07 00:25 A   02 58 44.084232 -22 18 48.27193
 2018-Nov-07 00:26 A   02 58 44.058024 -22 18 47.60008
 2018-Nov-07 00:27 A   02 58 44.031775 -22 18 46.92811
 2018-Nov-07 00:28 A   02 58 44.005486 -22 18 46.25602
 2018-Nov-07 00:29 A   02 58 43.979155 -22 18 45.58379
 2018-Nov-07 00:30 A   02 58 43.952784 -22 18 44.91144
 2018-Nov-07 00:31 A   02 58 43.926372 -22 18 44.23896
 2018-Nov-07 00:32 A   02 58 43.899919 -22 18 43.56635
 2018-Nov-07 00:33 A   02 58 43.873426 -22 18 42.89361
 2018-Nov-07 00:34 A   02 58 43.846893 -22 18 42.22073
 2018-Nov-07 00:35 A   02 58 43.820320 -22 18 41.54773
 2018-Nov-07 00:36 A   02 58 43.793706 -22 18 40.87459
 2018-Nov-07 00:37 A   02 58 43.767052 -22 18 40.20131
 2018-Nov-07 00:38     02 58 43.740359 -22 18 39.52790
 2018-Nov-07 00:39     02 58 43.713625 -22 18 38.85436
 2018-Nov-07 00:40     02 58 43.686852 -22 18 38.18067
 2018-Nov-07 00:41     02 58 43.660039 -22 18 37.50685
 2018-Nov-07 00:42     02 58 43.633187 -22 18 36.83289
 2018-Nov-07 00:43     02 58 43.606295 -22 18 36.15879
 2018-Nov-07 00:44     02 58 43.579365 -22 18 35.48454
 2018-Nov-07 00:45     02 58 43.552394 -22 18 34.81016
 2018-Nov-07 00:46     02 58 43.525385 -22 18 34.13563
 2018-Nov-07 00:47     02 58 43.498337 -22 18 33.46096
 2018-Nov-07 00:48     02 58 43.471250 -22 18 32.78614
 2018-Nov-07 00:49     02 58 43.444124 -22 18 32.11118
 2018-Nov-07 00:50     02 58 43.416960 -22 18 31.43607
 2018-Nov-07 00:51     02 58 43.389757 -22 18 30.76082
 2018-Nov-07 00:52     02 58 43.362515 -22 18 30.08541
 2018-Nov-07 00:53     02 58 43.335236 -22 18 29.40986
 2018-Nov-07 00:54     02 58 43.307918 -22 18 28.73415
 2018-Nov-07 00:55     02 58 43.280562 -22 18 28.05830
 2018-Nov-07 00:56     02 58 43.253168 -22 18 27.38229
 2018-Nov-07 00:57     02 58 43.225736 -22 18 26.70613
 2018-Nov-07 00:58     02 58 43.198267 -22 18 26.02982
 2018-Nov-07 00:59     02 58 43.170760 -22 18 25.35335
 2018-Nov-07 01:00     02 58 43.143215 -22 18 24.67673
 2018-Nov-07 01:01     02 58 43.115634 -22 18 23.99995
 2018-Nov-07 01:02     02 58 43.088015 -22 18 23.32302
 2018-Nov-07 01:03     02 58 43.060359 -22 18 22.64592
 2018-Nov-07 01:04     02 58 43.032665 -22 18 21.96867
 2018-Nov-07 01:05     02 58 43.004935 -22 18 21.29126
 2018-Nov-07 01:06     02 58 42.977169 -22 18 20.61369
 2018-Nov-07 01:07     02 58 42.949365 -22 18 19.93595
 2018-Nov-07 01:08     02 58 42.921526 -22 18 19.25806
 2018-Nov-07 01:09     02 58 42.893649 -22 18 18.58000
 2018-Nov-07 01:10     02 58 42.865737 -22 18 17.90177
 2018-Nov-07 01:11     02 58 42.837789 -22 18 17.22339
 2018-Nov-07 01:12     02 58 42.809804 -22 18 16.54483
 2018-Nov-07 01:13     02 58 42.781784 -22 18 15.86611
 2018-Nov-07 01:14     02 58 42.753728 -22 18 15.18723
 2018-Nov-07 01:15     02 58 42.725636 -22 18 14.50817
 2018-Nov-07 01:16     02 58 42.697509 -22 18 13.82895
 2018-Nov-07 01:17     02 58 42.669347 -22 18 13.14955
 2018-Nov-07 01:18     02 58 42.641149 -22 18 12.46999
 2018-Nov-07 01:19     02 58 42.612916 -22 18 11.79025
 2018-Nov-07 01:20     02 58 42.584649 -22 18 11.11034
